{
  "type": "FeatureCollection",
  "features": [
    {
      "type": "Feature",
      "properties": {
        "norad_id": 32197,
        "name": "FENGYUN 1C DEB",
        "group": "fengyun-1c-debris",
        "lat": 53.446117235172515,
        "lon": 96.92292892373185,
        "alt_km": 753.6093600318536,
        "timestamp": "2025-12-21T09:37:22.940586+00:00",
        "meta_object_name": "FENGYUN 1C DEB",
        "meta_object_id": "1999-025CUT",
        "meta_epoch": "2025-12-19T12:37:01.807104",
        "meta_mean_motion": 14.32680641,
        "meta_eccentricity": 0.0161228,
        "meta_inclination": 98.9019,
        "meta_ra_of_asc_node": 262.7927,
        "meta_arg_of_pericenter": 209.8773,
        "meta_mean_anomaly": 331.088,
        "meta_ephemeris_type": 0,
        "meta_classification_type": "U",
        "meta_norad_cat_id": 32197,
        "meta_element_set_no": 999,
        "meta_rev_at_epoch": 94520,
        "meta_bstar": 0.00024041,
        "meta_mean_motion_dot": 7.04e-06,
        "meta_mean_motion_ddot": 0,
        "tle_line1": "1 32197U 99025CUT 25353.52571536  .00000704  00000+0  24041-3 0  9993",
        "tle_line2": "2 32197  98.9019 262.7927 0161228 209.8773 331.0880 14.32680641945209"
      },
      "geometry": {
        "type": "Point",
        "coordinates": [
          96.92292892373185,
          53.446117235172515
        ]
      }
    },
    {
      "type": "Feature",
      "properties": {
        "norad_id": 32198,
        "name": "FENGYUN 1C DEB",
        "group": "fengyun-1c-debris",
        "lat": 69.29784534497297,
        "lon": -15.503873050632563,
        "alt_km": 920.7571412592124,
        "timestamp": "2025-12-21T09:37:22.940597+00:00",
        "meta_object_name": "FENGYUN 1C DEB",
        "meta_object_id": "1999-025CUU",
        "meta_epoch": "2025-12-17T02:50:00.320928",
        "meta_mean_motion": 14.08857661,
        "meta_eccentricity": 0.00954874,
        "meta_inclination": 98.3425,
        "meta_ra_of_asc_node": 137.6834,
        "meta_arg_of_pericenter": 279.8444,
        "meta_mean_anomaly": 79.1957,
        "meta_ephemeris_type": 0,
        "meta_classification_type": "U",
        "meta_norad_cat_id": 32198,
        "meta_element_set_no": 999,
        "meta_rev_at_epoch": 57007,
        "meta_bstar": 0.0016058245,
        "meta_mean_motion_dot": 2.853e-05,
        "meta_mean_motion_ddot": 0,
        "tle_line1": "1 32198U 99025CUU 25351.11805927  .00002853  00000+0  16058-2 0  9996",
        "tle_line2": "2 32198  98.3425 137.6834 0095487 279.8444  79.1957 14.08857661570072"
      },
      "geometry": {
        "type": "Point",
        "coordinates": [
          -15.503873050632563,
          69.29784534497297
        ]
      }
    },
    {
      "type": "Feature",
      "properties": {
        "norad_id": 32200,
        "name": "FENGYUN 1C DEB",
        "group": "fengyun-1c-debris",
        "lat": -54.53760360302658,
        "lon": -148.29323113789548,
        "alt_km": 821.7178264407457,
        "timestamp": "2025-12-21T09:37:22.940611+00:00",
        "meta_object_name": "FENGYUN 1C DEB",
        "meta_object_id": "1999-025CUW",
        "meta_epoch": "2025-12-18T14:21:34.309728",
        "meta_mean_motion": 14.15720685,
        "meta_eccentricity": 0.00398559,
        "meta_inclination": 98.7904,
        "meta_ra_of_asc_node": 41.4894,
        "meta_arg_of_pericenter": 272.8163,
        "meta_mean_anomaly": 86.845,
        "meta_ephemeris_type": 0,
        "meta_classification_type": "U",
        "meta_norad_cat_id": 32200,
        "meta_element_set_no": 999,
        "meta_rev_at_epoch": 94446,
        "meta_bstar": 0.00076515911,
        "meta_mean_motion_dot": 1.469e-05,
        "meta_mean_motion_ddot": 0,
        "tle_line1": "1 32200U 99025CUW 25352.59831377  .00001469  00000+0  76516-3 0  9999",
        "tle_line2": "2 32200  98.7904  41.4894 0039855 272.8163  86.8450 14.15720685944462"
      },
      "geometry": {
        "type": "Point",
        "coordinates": [
          -148.29323113789548,
          -54.53760360302658
        ]
      }
    },
    {
      "type": "Feature",
      "properties": {
        "norad_id": 32203,
        "name": "FENGYUN 1C DEB",
        "group": "fengyun-1c-debris",
        "lat": -26.88488040064312,
        "lon": -109.8731040245924,
        "alt_km": 442.31335327912257,
        "timestamp": "2025-12-21T09:37:22.940622+00:00",
        "meta_object_name": "FENGYUN 1C DEB",
        "meta_object_id": "1999-025CUZ",
        "meta_epoch": "2025-12-19T23:27:49.004064",
        "meta_mean_motion": 15.413949,
        "meta_eccentricity": 0.0142996,
        "meta_inclination": 97.0163,
        "meta_ra_of_asc_node": 245.1784,
        "meta_arg_of_pericenter": 65.9301,
        "meta_mean_anomaly": 295.6832,
        "meta_ephemeris_type": 0,
        "meta_classification_type": "U",
        "meta_norad_cat_id": 32203,
        "meta_element_set_no": 999,
        "meta_rev_at_epoch": 75209,
        "meta_bstar": 0.00056186,
        "meta_mean_motion_dot": 0.00034062,
        "meta_mean_motion_ddot": 0,
        "tle_line1": "1 32203U 99025CUZ 25353.97765051  .00034062  00000+0  56186-3 0  9996",
        "tle_line2": "2 32203  97.0163 245.1784 0142996  65.9301 295.6832 15.41394900752098"
      },
      "geometry": {
        "type": "Point",
        "coordinates": [
          -109.8731040245924,
          -26.88488040064312
        ]
      }
    },
    {
      "type": "Feature",
      "properties": {
        "norad_id": 32205,
        "name": "FENGYUN 1C DEB",
        "group": "fengyun-1c-debris",
        "lat": 27.09810581100622,
        "lon": -176.47063082937856,
        "alt_km": 847.6749001852977,
        "timestamp": "2025-12-21T09:37:22.940632+00:00",
        "meta_object_name": "FENGYUN 1C DEB",
        "meta_object_id": "1999-025CVB",
        "meta_epoch": "2025-12-18T23:17:52.577952",
        "meta_mean_motion": 14.13915552,
        "meta_eccentricity": 0.0009966,
        "meta_inclination": 98.6782,
        "meta_ra_of_asc_node": 356.6881,
        "meta_arg_of_pericenter": 272.3961,
        "meta_mean_anomaly": 117.0871,
        "meta_ephemeris_type": 0,
        "meta_classification_type": "U",
        "meta_norad_cat_id": 32205,
        "meta_element_set_no": 999,
        "meta_rev_at_epoch": 94586,
        "meta_bstar": 0.00014442798,
        "meta_mean_motion_dot": 2.31e-06,
        "meta_mean_motion_ddot": 0,
        "tle_line1": "1 32205U 99025CVB 25352.97074743  .00000231  00000+0  14443-3 0  9999",
        "tle_line2": "2 32205  98.6782 356.6881 0009966 272.3961 117.0871 14.13915552945864"
      },
      "geometry": {
        "type": "Point",
        "coordinates": [
          -176.47063082937856,
          27.09810581100622
        ]
      }
    },
    {
      "type": "Feature",
      "properties": {
        "norad_id": 32207,
        "name": "FENGYUN 1C DEB",
        "group": "fengyun-1c-debris",
        "lat": -35.499553954633384,
        "lon": -37.268937216375285,
        "alt_km": 817.9683885312434,
        "timestamp": "2025-12-21T09:37:22.940644+00:00",
        "meta_object_name": "FENGYUN 1C DEB",
        "meta_object_id": "1999-025CVD",
        "meta_epoch": "2025-12-12T04:00:31.760928",
        "meta_mean_motion": 14.39569701,
        "meta_eccentricity": 0.00852472,
        "meta_inclination": 99.8553,
        "meta_ra_of_asc_node": 305.0027,
        "meta_arg_of_pericenter": 139.3042,
        "meta_mean_anomaly": 236.8167,
        "meta_ephemeris_type": 0,
        "meta_classification_type": "U",
        "meta_norad_cat_id": 32207,
        "meta_element_set_no": 999,
        "meta_rev_at_epoch": 64299,
        "meta_bstar": 0.00048704631,
        "meta_mean_motion_dot": 1.529e-05,
        "meta_mean_motion_ddot": 0,
        "tle_line1": "1 32207U 99025CVD 25346.16703427  .00001529  00000+0  48705-3 0  9992",
        "tle_line2": "2 32207  99.8553 305.0027 0085247 139.3042 236.8167 14.39569701642998"
      },
      "geometry": {
        "type": "Point",
        "coordinates": [
          -37.268937216375285,
          -35.499553954633384
        ]
      }
    },
    {
      "type": "Feature",
      "properties": {
        "norad_id": 32209,
        "name": "FENGYUN 1C DEB",
        "group": "fengyun-1c-debris",
        "lat": -17.967996833807536,
        "lon": 119.23982275035097,
        "alt_km": 1327.72162654997,
        "timestamp": "2025-12-21T09:37:22.940654+00:00",
        "meta_object_name": "FENGYUN 1C DEB",
        "meta_object_id": "1999-025CVF",
        "meta_epoch": "2025-12-16T19:55:00.323040",
        "meta_mean_motion": 13.47189962,
        "meta_eccentricity": 0.0333308,
        "meta_inclination": 99.4209,
        "meta_ra_of_asc_node": 298.0158,
        "meta_arg_of_pericenter": 15.1266,
        "meta_mean_anomaly": 345.9549,
        "meta_ephemeris_type": 0,
        "meta_classification_type": "U",
        "meta_norad_cat_id": 32209,
        "meta_element_set_no": 999,
        "meta_rev_at_epoch": 90031,
        "meta_bstar": 0.0022098107,
        "meta_mean_motion_dot": 1.847e-05,
        "meta_mean_motion_ddot": 0,
        "tle_line1": "1 32209U 99025CVF 25350.82986485  .00001847  00000+0  22098-2 0  9998",
        "tle_line2": "2 32209  99.4209 298.0158 0333308  15.1266 345.9549 13.47189962900317"
      },
      "geometry": {
        "type": "Point",
        "coordinates": [
          119.23982275035097,
          -17.967996833807536
        ]
      }
    }
  ]
}